{
  "norad_id": 59356,
  "name": "STARLINK-31552",
  "history": [
    {
      "epoch": "2026-03-28T13:15:06.730272Z",
      "apogee_km": 483.4725400798443,
      "perigee_km": 482.6107760403911,
      "latitude_deg": 2.0988365218838797e-05,
      "longitude_deg": 128.93890884967266,
      "height_km": 482.83519920708534,
      "semi_major_axis_km": 6861.178658060117,
      "eccentricity": 6.28e-05,
      "inclination_deg": 42.9999,
      "raan_deg": 153.6879,
      "arg_perigee_deg": 267.6675,
      "mean_anomaly_deg": 92.4105,
      "mean_motion_rev_day": 15.27582484
    }
  ]
}